ONEWEB-0012             
1 44057U 19010A   23279.63603474  .00000034  00000+0  55961-4 0  9993
2 44057  87.9029  64.7552 0002614  81.4946 278.6481 13.16592651222013
ONEWEB-0010             
1 44058U 19010B   23279.43339225  .00000047  00000+0  89573-4 0  9992
2 44058  87.9024  64.7797 0001841  71.5094 288.6236 13.16593874222034
ONEWEB-0008             
1 44059U 19010C   23279.45871221  .00000121  00000+0  28403-3 0  9999
2 44059  87.9029  64.7693 0001661 103.2214 256.9102 13.16593868222158
ONEWEB-0007             
1 44060U 19010D   23279.54848871  .00000188  00000+0  46617-3 0  9996
2 44060  87.8944  95.2296 0001961  81.2383 278.8970 13.15545718221917
ONEWEB-0006             
1 44061U 19010E   23279.53581222 -.00000009  00000+0 -58643-4 0  9997
2 44061  87.8932  95.2328 0001889  78.4046 281.7296 13.15549359221968
ONEWEB-0011             
1 44062U 19010F   23279.52327580 -.00000096  00000+0 -29009-3 0  9991
2 44062  87.8937  95.2370 0001752  92.9556 267.1774 13.15551543221953
ONEWEB-0013             
1 45131U 20008A   23279.65528453 -.00000392  00000+0 -11756-2 0  9992
2 45131  87.9133 250.4513 0002780  96.7384 263.4059 13.09389820177985
ONEWEB-0017             
1 45132U 20008B   23279.37021859 -.00000731  00000+0 -21309-2 0  9992
2 45132  87.8877 231.8369 0001964  72.5278 287.6064 13.10375889178975
